start=new Date('2022-03-31T00:00:00.000Z').valueOf();
sats=[{"BSTAR":"0.00021136000000","DECAY_DATE":null,"PERIAPSIS":"546.257","FILE":"3380787","MEAN_MOTION_DOT":"0.00002869","OBJECT_ID":"2020-074U","SEMIMAJOR_AXIS":"6925.329","PERIOD":"95.592","LAUNCH_DATE":"2020-10-24","TLE_LINE1":"1 46757U 20074U   22089.90422921  .00002869  00000-0  21136-3 0  9993","SITE":"AFETR","REV_AT_EPOCH":"7959","ELEMENT_SET_NO":"999","NORAD_CAT_ID":"46757","REF_FRAME":"TEME","INCLINATION":"53.0526","MEAN_MOTION_DDOT":"0.0000000000000","EPOCH":"2022-03-30T21:42:05.403744","GP_ID":"200096549","RA_OF_ASC_NODE":"310.0807","APOAPSIS":"548.131","OBJECT_TYPE":"PAYLOAD","MEAN_ELEMENT_THEORY":"SGP4","OBJECT_NAME":"STARLINK-1926","TLE_LINE2":"2 46757  53.0526 310.0807 0001353  70.0507 290.0627 15.06406496 79599","EPHEMERIS_TYPE":"0","RCS_SIZE":"LARGE","CENTER_NAME":"EARTH","MEAN_MOTION":"15.06406496","ARG_OF_PERICENTER":"70.0507","CLASSIFICATION_TYPE":"U","TIME_SYSTEM":"UTC","ECCENTRICITY":"0.00013530","COUNTRY_CODE":"US","MEAN_ANOMALY":"290.0627"},{"LAUNCH_DATE":"2020-10-24","PERIOD":"95.591","ELEMENT_SET_NO":"999","REV_AT_EPOCH":"7959","SITE":"AFETR","TLE_LINE1":"1 46758U 20074V   22089.86463743  .00004114  00000-0  29487-3 0  9998","FILE":"3380787","PERIAPSIS":"545.765","DECAY_DATE":null,"BSTAR":"0.00029487000000","OBJECT_ID":"2020-074V","SEMIMAJOR_AXIS":"6925.314","MEAN_MOTION_DOT":"0.00004114","GP_ID":"200096799","NORAD_CAT_ID":"46758","MEAN_MOTION_DDOT":"0.0000000000000","EPOCH":"2022-03-30T20:45:04.673952","INCLINATION":"53.0536","REF_FRAME":"TEME","TLE_LINE2":"2 46758  53.0536 310.2457 0002041  49.9420 310.1748 15.06411326 79594","OBJECT_NAME":"STARLINK-1928","MEAN_ELEMENT_THEORY":"SGP4","RCS_SIZE":"LARGE","EPHEMERIS_TYPE":"0","OBJECT_TYPE":"PAYLOAD","RA_OF_ASC_NODE":"310.2457","APOAPSIS":"548.592","MEAN_ANOMALY":"310.1748","COUNTRY_CODE":"US","CENTER_NAME":"EARTH","ECCENTRICITY":"0.00020410","TIME_SYSTEM":"UTC","CLASSIFICATION_TYPE":"U","ARG_OF_PERICENTER":"49.9420","MEAN_MOTION":"15.06411326"},{"MEAN_ELEMENT_THEORY":"SGP4","OBJECT_NAME":"STARLINK-1833","TLE_LINE2":"2 46759  53.0557 320.2634 0001701  68.5388 291.5782 15.06398166 79448","EPHEMERIS_TYPE":"0","RCS_SIZE":"LARGE","RA_OF_ASC_NODE":"320.2634","APOAPSIS":"548.397","OBJECT_TYPE":"PAYLOAD","COUNTRY_CODE":"US","MEAN_ANOMALY":"291.5782","CENTER_NAME":"EARTH","MEAN_MOTION":"15.06398166","ARG_OF_PERICENTER":"68.5388","CLASSIFICATION_TYPE":"U","TIME_SYSTEM":"UTC","ECCENTRICITY":"0.00017010","PERIOD":"95.592","LAUNCH_DATE":"2020-10-24","TLE_LINE1":"1 46759U 20074W   22089.86002572  .00001401  00000-0  11293-3 0  9990","SITE":"AFETR","REV_AT_EPOCH":"7944","ELEMENT_SET_NO":"999","BSTAR":"0.00011293000000","DECAY_DATE":null,"FILE":"3380787","PERIAPSIS":"546.041","MEAN_MOTION_DOT":"0.00001401","OBJECT_ID":"2020-074W","SEMIMAJOR_AXIS":"6925.354","GP_ID":"200097551","NORAD_CAT_ID":"46759","REF_FRAME":"TEME","INCLINATION":"53.0557","MEAN_MOTION_DDOT":"0.0000000000000","EPOCH":"2022-03-30T20:38:26.222208"},{"OBJECT_TYPE":"PAYLOAD","APOAPSIS":"548.336","RA_OF_ASC_NODE":"320.2125","EPHEMERIS_TYPE":"0","RCS_SIZE":"LARGE","MEAN_ELEMENT_THEORY":"SGP4","TLE_LINE2":"2 46760  53.0569 320.2125 0001608  64.0471 296.0683 15.06397100 79456","OBJECT_NAME":"STARLINK-1896","MEAN_MOTION":"15.06397100","TIME_SYSTEM":"UTC","ECCENTRICITY":"0.00016080","ARG_OF_PERICENTER":"64.0471","CLASSIFICATION_TYPE":"U","CENTER_NAME":"EARTH","MEAN_ANOMALY":"296.0683","COUNTRY_CODE":"US","MEAN_MOTION_DOT":"0.00001219","SEMIMAJOR_AXIS":"6925.357","OBJECT_ID":"2020-074X","BSTAR":"0.00010074000000","FILE":"3380787","PERIAPSIS":"546.109","DECAY_DATE":null,"TLE_LINE1":"1 46760U 20074X   22089.87108447  .00001219  00000-0  10074-3 0  9994","ELEMENT_SET_NO":"999","REV_AT_EPOCH":"7945","SITE":"AFETR","PERIOD":"95.592","LAUNCH_DATE":"2020-10-24","INCLINATION":"53.0569","REF_FRAME":"TEME","MEAN_MOTION_DDOT":"0.0000000000000","EPOCH":"2022-03-30T20:54:21.698208","NORAD_CAT_ID":"46760","GP_ID":"200097301"},{"COUNTRY_CODE":"US","MEAN_ANOMALY":"322.5336","CENTER_NAME":"EARTH","MEAN_MOTION":"15.42145398","CLASSIFICATION_TYPE":"U","ARG_OF_PERICENTER":"37.5782","ECCENTRICITY":"0.00016190","TIME_SYSTEM":"UTC","MEAN_ELEMENT_THEORY":"SGP4","OBJECT_NAME":"STARLINK-1902","TLE_LINE2":"2 46763  53.0543 301.8103 0001619  37.5782 322.5336 15.42145398 79713","EPHEMERIS_TYPE":"0","RCS_SIZE":"LARGE","RA_OF_ASC_NODE":"301.8103","APOAPSIS":"440.885","OBJECT_TYPE":"PAYLOAD","GP_ID":"200096049","NORAD_CAT_ID":"46763","REF_FRAME":"TEME","INCLINATION":"53.0543","MEAN_MOTION_DDOT":"0.0000000000000","EPOCH":"2022-03-30T21:07:14.092608","PERIOD":"93.376","LAUNCH_DATE":"2020-10-24","TLE_LINE1":"1 46763U 20074AA  22089.88002422  .00022673  00000-0  52913-3 0  9999","REV_AT_EPOCH":"7971","SITE":"AFETR","ELEMENT_SET_NO":"999","BSTAR":"0.00052913000000","DECAY_DATE":null,"FILE":"3380787","PERIAPSIS":"438.677","MEAN_MOTION_DOT":"0.00022673","OBJECT_ID":"2020-074AA","SEMIMAJOR_AXIS":"6817.916"},{"GP_ID":"200096299","REF_FRAME":"TEME","INCLINATION":"53.0565","EPOCH":"2022-03-30T20:43:44.833440","MEAN_MOTION_DDOT":"0.0000000000000","NORAD_CAT_ID":"46764","TLE_LINE1":"1 46764U 20074AB  22089.86371335  .00002511  00000-0  18740-3 0  9999","SITE":"AFETR","REV_AT_EPOCH":"7945","ELEMENT_SET_NO":"999","PERIOD":"95.592","LAUNCH_DATE":"2020-10-24","MEAN_MOTION_DOT":"0.00002511","OBJECT_ID":"2020-074AB","SEMIMAJOR_AXIS":"6925.333","BSTAR":"0.00018740000000","DECAY_DATE":null,"PERIAPSIS":"545.980","FILE":"3380787","COUNTRY_CODE":"US","MEAN_ANOMALY":"306.2322","MEAN_MOTION":"15.06405019","CLASSIFICATION_TYPE":"U","ARG_OF_PERICENTER":"53.8829","ECCENTRICITY":"0.00017590","TIME_SYSTEM":"UTC","CENTER_NAME":"EARTH","EPHEMERIS_TYPE":"0","RCS_SIZE":"LARGE","MEAN_ELEMENT_THEORY":"SGP4","OBJECT_NAME":"STARLINK-1903","TLE_LINE2":"2 46764  53.0565 320.2450 0001759  53.8829 306.2322 15.06405019 79450","RA_OF_ASC_NODE":"320.2450","APOAPSIS":"548.416","OBJECT_TYPE":"PAYLOAD"},{"DECAY_DATE":null,"PERIAPSIS":"546.201","FILE":"3380787","BSTAR":"0.00004424600000","OBJECT_ID":"2020-074AC","SEMIMAJOR_AXIS":"6925.364","MEAN_MOTION_DOT":"0.00000378","LAUNCH_DATE":"2020-10-24","PERIOD":"95.592","REV_AT_EPOCH":"7944","SITE":"AFETR","ELEMENT_SET_NO":"999","TLE_LINE1":"1 46765U 20074AC  22089.85264721  .00000378  00000-0  44246-4 0  9999","NORAD_CAT_ID":"46765","MEAN_MOTION_DDOT":"0.0000000000000","EPOCH":"2022-03-30T20:27:48.718944","REF_FRAME":"TEME","INCLINATION":"53.0528","GP_ID":"200097051","RA_OF_ASC_NODE":"320.3096","APOAPSIS":"548.256","OBJECT_TYPE":"PAYLOAD","OBJECT_NAME":"STARLINK-1906","TLE_LINE2":"2 46765  53.0528 320.3096 0001484  60.7850 299.3287 15.06395089 79449","MEAN_ELEMENT_THEORY":"SGP4","RCS_SIZE":"LARGE","EPHEMERIS_TYPE":"0","CENTER_NAME":"EARTH","CLASSIFICATION_TYPE":"U","ARG_OF_PERICENTER":"60.7850","TIME_SYSTEM":"UTC","ECCENTRICITY":"0.00014840","MEAN_MOTION":"15.06395089","COUNTRY_CODE":"US","MEAN_ANOMALY":"299.3287"},{"GP_ID":"200097802","MEAN_MOTION_DDOT":"0.0000000000000","EPOCH":"2022-03-30T21:52:44.593536","REF_FRAME":"TEME","INCLINATION":"53.0539","NORAD_CAT_ID":"46766","SITE":"AFETR","REV_AT_EPOCH":"7946","ELEMENT_SET_NO":"999","TLE_LINE1":"1 46766U 20074AD  22089.91162724  .00001901  00000-0  14647-3 0  9991","LAUNCH_DATE":"2020-10-24","PERIOD":"95.592","SEMIMAJOR_AXIS":"6925.337","OBJECT_ID":"2020-074AD","MEAN_MOTION_DOT":"0.00001901","DECAY_DATE":null,"PERIAPSIS":"546.119","FILE":"3380787","BSTAR":"0.00014647000000","COUNTRY_CODE":"US","MEAN_ANOMALY":"296.5938","ARG_OF_PERICENTER":"63.5211","CLASSIFICATION_TYPE":"U","TIME_SYSTEM":"UTC","ECCENTRICITY":"0.00015640","MEAN_MOTION":"15.06403657","CENTER_NAME":"EARTH","RCS_SIZE":"LARGE","EPHEMERIS_TYPE":"0","OBJECT_NAME":"STARLINK-1916","TLE_LINE2":"2 46766  53.0539 320.0221 0001564  63.5211 296.5938 15.06403657 79465","MEAN_ELEMENT_THEORY":"SGP4","RA_OF_ASC_NODE":"320.0221","APOAPSIS":"548.285","OBJECT_TYPE":"PAYLOAD"},{"ELEMENT_SET_NO":"999","SITE":"AFETR","REV_AT_EPOCH":"7945","TLE_LINE1":"1 46767U 20074AE  22089.87477416  .00003033  00000-0  22237-3 0  9996","LAUNCH_DATE":"2020-10-24","PERIOD":"95.592","OBJECT_ID":"2020-074AE","SEMIMAJOR_AXIS":"6925.333","MEAN_MOTION_DOT":"0.00003033","PERIAPSIS":"545.939","FILE":"3380787","DECAY_DATE":null,"BSTAR":"0.00022237000000","GP_ID":"200096550","MEAN_MOTION_DDOT":"0.0000000000000","EPOCH":"2022-03-30T20:59:40.487424","INCLINATION":"53.0557","REF_FRAME":"TEME","NORAD_CAT_ID":"46767","RCS_SIZE":"LARGE","EPHEMERIS_TYPE":"0","TLE_LINE2":"2 46767  53.0557 320.1943 0001818  59.3760 300.7408 15.06404990 79452","OBJECT_NAME":"STARLINK-1917","MEAN_ELEMENT_THEORY":"SGP4","OBJECT_TYPE":"PAYLOAD","RA_OF_ASC_NODE":"320.1943","APOAPSIS":"548.457","MEAN_ANOMALY":"300.7408","COUNTRY_CODE":"US","ECCENTRICITY":"0.00018180","TIME_SYSTEM":"UTC","CLASSIFICATION_TYPE":"U","ARG_OF_PERICENTER":"59.3760","MEAN_MOTION":"15.06404990","CENTER_NAME":"EARTH"},{"CENTER_NAME":"EARTH","MEAN_MOTION":"15.06379516","ECCENTRICITY":"0.00015450","TIME_SYSTEM":"UTC","CLASSIFICATION_TYPE":"U","ARG_OF_PERICENTER":"65.1121","MEAN_ANOMALY":"295.0029","COUNTRY_CODE":"US","OBJECT_TYPE":"PAYLOAD","RA_OF_ASC_NODE":"320.1937","APOAPSIS":"548.346","MEAN_ELEMENT_THEORY":"SGP4","TLE_LINE2":"2 46768  53.0542 320.1937 0001545  65.1121 295.0029 15.06379516 79453","OBJECT_NAME":"STARLINK-1918","EPHEMERIS_TYPE":"0","RCS_SIZE":"LARGE","NORAD_CAT_ID":"46768","INCLINATION":"53.0542","REF_FRAME":"TEME","MEAN_MOTION_DDOT":"0.0000000000000","EPOCH":"2022-03-30T21:04:59.514240","GP_ID":"200096800","BSTAR":"0.00037514000000","PERIAPSIS":"546.206","FILE":"3380787","DECAY_DATE":null,"MEAN_MOTION_DOT":"0.00005308","OBJECT_ID":"2020-074AF","SEMIMAJOR_AXIS":"6925.411","PERIOD":"95.593","LAUNCH_DATE":"2020-10-24","TLE_LINE1":"1 46768U 20074AF  22089.87846660  .00005308  00000-0  37514-3 0  9999","ELEMENT_SET_NO":"999","REV_AT_EPOCH":"7945","SITE":"AFETR"}];
